     2              NAVIGATION DATA                         RINEX VERSION / TYPE
CCRINEXN V1.6.0 UX  CDDIS               31-JAN-13 15:33     PGM / RUN BY / DATE 
IGS BROADCAST EPHEMERIS FILE                                COMMENT             
    0.1211D-07 -0.7451D-08 -0.5960D-07  0.5960D-07          ION ALPHA           
    0.1147D+06 -0.1311D+06 -0.2621D+06  0.7209D+06          ION BETA            
    0.931322574616D-09 0.976996261670D-14   503808     1725 DELTA-UTC: A0,A1,T,W
    16                                                      LEAP SECONDS        
                                                            END OF HEADER       
24 13  1 30  2  0  0.0-0.187661498785D-06-0.682121026330D-12 0.000000000000D+00
    0.620000000000D+02 0.590937500000D+02 0.431946567403D-08-0.207406459874D+01
    0.295229256153D-05 0.595938763581D-03 0.123530626297D-04 0.515371191216D+04
    0.266400000000D+06-0.372529029846D-08-0.248447884596D+01-0.298023223877D-07
    0.959516675927D+00 0.140968750000D+03 0.325612604901D-01-0.791640086817D-08
    0.960754323320D-10 0.100000000000D+01 0.172500000000D+04 0.000000000000D+00
    0.280000000000D+01 0.000000000000D+00 0.419095158577D-08 0.620000000000D+02
    0.265590000000D+06 0.000000000000D+00 0.000000000000D+00 0.000000000000D+00
26 13  1 30  2  0  0.0-0.120221171528D-03 0.138697942020D-10 0.000000000000D+00
    0.420000000000D+02-0.400625000000D+02 0.420910389750D-08-0.157550446238D+01
   -0.183098018169D-05 0.211130011594D-01 0.823102891445D-05 0.515365304565D+04
    0.266400000000D+06 0.389292836189D-06 0.285076284098D+01 0.294297933578D-06
    0.980584840906D+00 0.224781250000D+03 0.121593996316D+01-0.773746515362D-08
   -0.430732227440D-09 0.100000000000D+01 0.172500000000D+04 0.000000000000D+00
    0.200000000000D+01 0.000000000000D+00-0.605359673500D-08 0.420000000000D+02
    0.264732000000D+06 0.400000000000D+01 0.000000000000D+00 0.000000000000D+00
27 13  1 30  2  0  0.0-0.190274324268D-03 0.363797880709D-11 0.000000000000D+00
    0.720000000000D+02 0.494687500000D+02 0.588560230182D-08 0.579492712918D+00
    0.277161598206D-05 0.575283693615D-02 0.365450978279D-05 0.515362902832D+04
    0.266400000000D+06 0.111758708954D-07-0.142060783029D+01 0.149011611938D-07
    0.976150175910D+00 0.314562500000D+03 0.839796811674D+00-0.844142304772D-08
    0.195722438339D-09 0.100000000000D+01 0.172500000000D+04 0.000000000000D+00
    0.200000000000D+01 0.630000000000D+02-0.190921127796D-07 0.720000000000D+02
    0.261870000000D+06 0.400000000000D+01 0.000000000000D+00 0.000000000000D+00
28 13  1 30  2  0  0.0 0.228014308959D-03 0.341060513165D-11 0.000000000000D+00
    0.840000000000D+02 0.396875000000D+02 0.451268800106D-08 0.423615969603D+00
    0.220909714699D-05 0.186640669126D-01 0.387616455555D-05 0.515363377380D+04
    0.266400000000D+06-0.229105353355D-06-0.137502087889D+01 0.353902578354D-07
    0.981608507592D+00 0.320156250000D+03-0.178771829211D+01-0.859821547294D-08
    0.689314438862D-10 0.100000000000D+01 0.172500000000D+04 0.000000000000D+00
    0.280000000000D+01 0.000000000000D+00-0.107102096081D-07 0.840000000000D+02
    0.259200000000D+06 0.000000000000D+00 0.000000000000D+00 0.000000000000D+00
29 13  1 30  2  0  0.0 0.402880366892D-03 0.375166564481D-11 0.000000000000D+00
    0.500000000000D+02-0.103437500000D+03 0.446090010011D-08 0.255223305708D+01
   -0.542961061001D-05 0.188222283032D-02 0.711157917976D-05 0.515370940399D+04
    0.266400000000D+06 0.149011611938D-07-0.334363927143D+00 0.577419996262D-07
    0.965512910883D+00 0.243718750000D+03-0.110971348912D+01-0.811283793226D-08
   -0.490734726785D-09 0.100000000000D+01 0.172500000000D+04 0.000000000000D+00
    0.200000000000D+01 0.000000000000D+00-0.931322574616D-08 0.500000000000D+02
    0.259200000000D+06 0.000000000000D+00 0.000000000000D+00 0.000000000000D+00
30 13  1 30  2  0  0.0-0.238857697695D-03 0.909494701773D-11 0.000000000000D+00
    0.540000000000D+02 0.610312500000D+02 0.490984737199D-08-0.376023241940D+00
    0.338442623615D-05 0.108376515564D-01 0.433437526226D-05 0.515361301994D+04
    0.266400000000D+06-0.987201929092D-07-0.152988757089D+01-0.335276126862D-07
    0.962386754426D+00 0.296281250000D+03 0.161241436390D+01-0.866000358105D-08
    0.328942273195D-09 0.100000000000D+01 0.172500000000D+04 0.000000000000D+00
    0.800000000000D+01 0.000000000000D+00-0.465661287308D-08 0.540000000000D+02
    0.259218000000D+06 0.400000000000D+01 0.000000000000D+00 0.000000000000D+00
31 13  1 30  2  0  0.0 0.300052110106D-03 0.181898940355D-11 0.000000000000D+00
    0.320000000000D+02 0.491562500000D+02 0.383837416940D-08 0.308525506686D+01
    0.272691249847D-05 0.812282948755D-02 0.125020742416D-04 0.515353693199D+04
    0.266400000000D+06-0.167638063431D-07-0.245391532299D+01 0.158324837685D-06
    0.980941067310D+00 0.148312500000D+03-0.787891675079D+00-0.756924386082D-08
    0.113576159474D-09 0.100000000000D+01 0.172500000000D+04 0.000000000000D+00
    0.200000000000D+01 0.000000000000D+00-0.135041773319D-07 0.320000000000D+02
    0.264870000000D+06 0.000000000000D+00 0.000000000000D+00 0.000000000000D+00
32 13  1 30  2  0  0.0-0.530820339918D-03-0.352429196937D-11 0.000000000000D+00
    0.350000000000D+02 0.435937500000D+02 0.503449542123D-08-0.255463864300D+01
    0.241026282310D-05 0.116374130594D-01 0.487454235554D-05 0.515375845528D+04
    0.266400000000D+06-0.210478901863D-06 0.179944473622D+01 0.124797224999D-06
    0.949466327781D+00 0.280812500000D+03-0.405591366188D+00-0.831570352529D-08
    0.309298597814D-09 0.100000000000D+01 0.172500000000D+04 0.000000000000D+00
    0.200000000000D+01 0.000000000000D+00-0.325962901115D-08 0.350000000000D+02
    0.259218000000D+06 0.400000000000D+01 0.000000000000D+00 0.000000000000D+00
 6 13  1 30  3 59 44.0 0.370003283024D-03-0.140971678775D-10 0.000000000000D+00
    0.170000000000D+02-0.995312500000D+02 0.525236163909D-08 0.138921506977D+01
   -0.505149364471D-05 0.766923581250D-02 0.500306487083D-05 0.515368610763D+04
    0.273584000000D+06 0.122934579849D-06-0.443175956743D+00 0.113621354103D-06
    0.940345232513D+00 0.267062500000D+03-0.388843697152D+00-0.856607109696D-08
   -0.541093967307D-09 0.100000000000D+01 0.172500000000D+04 0.000000000000D+00
    0.200000000000D+01 0.000000000000D+00-0.512227416039D-08 0.170000000000D+02
    0.268188000000D+06 0.400000000000D+01 0.000000000000D+00 0.000000000000D+00
10 13  1 30  3 59 44.0-0.680680386722D-04-0.136424205266D-11 0.000000000000D+00
    0.800000000000D+01 0.478750000000D+02 0.524843290401D-08 0.171092326335D+01
    0.240281224251D-05 0.123003405752D-01 0.512786209583D-05 0.515375877190D+04
    0.273584000000D+06-0.296160578728D-06 0.173055856590D+01 0.167638063431D-07
    0.943739334120D+00 0.273468750000D+03 0.794452567155D+00-0.859785813530D-08
    0.273939982128D-09 0.100000000000D+01 0.172500000000D+04 0.000000000000D+00
    0.200000000000D+01 0.000000000000D+00-0.232830643654D-08 0.800000000000D+01
    0.266418000000D+06 0.400000000000D+01 0.000000000000D+00 0.000000000000D+00
13 13  1 30  3 59 44.0 0.148694030940D-03-0.295585778076D-11 0.000000000000D+00
    0.540000000000D+02-0.476250000000D+02 0.412195741036D-08 0.398504585784D+00
   -0.255741178989D-05 0.494405021891D-02 0.801682472229D-05 0.515355881882D+04
    0.273584000000D+06 0.260770320892D-07 0.285763713839D+01-0.670552253723D-07
    0.983105083027D+00 0.235625000000D+03 0.206679902926D+01-0.797426073140D-08
   -0.457161899771D-09 0.100000000000D+01 0.172500000000D+04 0.000000000000D+00
    0.200000000000D+01 0.000000000000D+00-0.111758708954D-07 0.540000000000D+02
    0.266856000000D+06 0.400000000000D+01 0.000000000000D+00 0.000000000000D+00
15 13  1 30  3 59 44.0-0.106713734567D-03-0.125055521494D-11 0.000000000000D+00
    0.300000000000D+01-0.539062500000D+02 0.512342769704D-08 0.645757348671D-01
   -0.276602804661D-05 0.528507528361D-02 0.664405524731D-05 0.515370236588D+04
    0.273584000000D+06 0.484287738800D-07 0.273329700726D+01 0.000000000000D+00
    0.942405844792D+00 0.240093750000D+03 0.124578417077D+00-0.847213861287D-08
   -0.424660545959D-09 0.100000000000D+01 0.172500000000D+04 0.000000000000D+00
    0.200000000000D+01 0.000000000000D+00-0.102445483208D-07 0.300000000000D+01
    0.272910000000D+06 0.000000000000D+00 0.000000000000D+00 0.000000000000D+00
20 13  1 30  3 59 44.0 0.820253044367D-04 0.147792889038D-11 0.000000000000D+00
    0.900000000000D+01 0.559062500000D+02 0.547201364562D-08 0.279145366679D+01
    0.291131436825D-05 0.558382447343D-02 0.521354377270D-05 0.515381165505D+04
    0.273584000000D+06 0.298023223877D-07 0.166193640548D+01-0.596046447754D-07
    0.928199807202D+00 0.259718750000D+03 0.128205119439D+01-0.855321341853D-08
    0.381087302387D-09 0.100000000000D+01 0.172500000000D+04 0.000000000000D+00
    0.200000000000D+01 0.000000000000D+00-0.791624188423D-08 0.900000000000D+01
    0.266418000000D+06 0.400000000000D+01 0.000000000000D+00 0.000000000000D+00
28 13  1 30  3 59 44.0 0.228033401072D-03 0.341060513165D-11 0.000000000000D+00
    0.280000000000D+02 0.400937500000D+02 0.448125803132D-08 0.147149370505D+01
    0.170804560184D-05 0.186642265180D-01 0.400841236115D-05 0.515363376617D+04
    0.273584000000D+06-0.320374965668D-06-0.137508318749D+01-0.378116965294D-06
    0.981610489846D+00 0.317187500000D+03-0.178772409258D+01-0.830534574448D-08
    0.243224412833D-09 0.100000000000D+01 0.172500000000D+04 0.000000000000D+00
    0.200000000000D+01 0.000000000000D+00-0.107102096081D-07 0.280000000000D+02
    0.272160000000D+06 0.000000000000D+00 0.000000000000D+00 0.000000000000D+00
